ONEWEB-0196             
1 48218U 21031J   24350.40780961 -.00002996  00000+0 -81161-2 0  9995
2 48218  87.9013  38.8312 0001726  92.4732 267.6595 13.14519490176125
ONEWEB-0183             
1 48219U 21031K   24350.83915613  .00000138  00000+0  33643-3 0  9994
2 48219  87.9009  38.7602 0001953  99.1123 261.0228 13.14501462176280
ONEWEB-0185             
1 48220U 21031L   24350.86532598 -.00000185  00000+0 -53288-3 0  9997
2 48220  87.9004  38.7255 0001937 105.8652 254.2691 13.14502535176218
ONEWEB-0187             
1 48221U 21031M   24350.83520066  .00000231  00000+0  58844-3 0  9995
2 48221  87.9009  38.7666 0001858 100.5716 259.5623 13.14503963176225
ONEWEB-0192             
1 48222U 21031N   24350.89149491  .00000200  00000+0  50522-3 0  9992
2 48222  87.9006  38.7530 0001743 100.8730 259.2596 13.14504361176145
ONEWEB-0219             
1 48223U 21031P   24350.87087319 -.00000105  00000+0 -31653-3 0  9991
2 48223  87.9008  38.7305 0001895 105.0737 255.0603 13.14501568176341
ONEWEB-0202             
1 48224U 21031Q   24350.85183592 -.00000065  00000+0 -20890-3 0  9996
2 48224  87.9009  38.7515 0001369 124.1859 235.9400 13.14501427176323
ONEWEB-0204             
1 48225U 21031R   24350.88593945  .00001753  00000+0  46943-2 0  9996
2 48225  87.9005  38.7568 0002294  95.1175 265.0216 13.14494638176227
